CTC2_L_00197016-03
1 28570U 25795FS  26070.40844907  .00000000  00000+0  00000-0 0  9990
2 28570  75.0000 180.0000 0000000   0.0000   0.0000 14.70334635    12
CTC2_L_00197016-04
1 28571U 24324GM  26070.40844907  .00000000  00000+0  00000-0 0  9998
2 28571  75.0000 180.0000 0000000   0.0000  90.0000 14.70334635    12
CTC2_L_00197017-01
1 28572U 24837EM  26070.40844907  .00000000  00000+0  00000-0 0  9998
2 28572  75.0000 192.0000 0000000   0.0000 192.0000 14.70334635    19
CTC2_L_00197017-02
1 28573U 24989SR  26070.40844907  .00000000  00000+0  00000-0 0  9997
2 28573  75.0000 192.0000 0000000   0.0000 282.0000 14.70334635    10
CTC2_L_00197017-03
1 28574U 22271BF  26070.40844907  .00000000  00000+0  00000-0 0  9990
2 28574  75.0000 192.0000 0000000   0.0000  12.0000 14.70334635    12
CTC2_L_00197017-04
1 28575U 24606TM  26070.40844907  .00000000  00000+0  00000-0 0  9995
2 28575  75.0000 192.0000 0000000   0.0000 102.0000 14.70334635    13
CTC2_L_00197018-01
1 28576U 22080XK  26070.40844907  .00000000  00000+0  00000-0 0  9990
2 28576  75.0000 204.0000 0000000   0.0000 204.0000 14.70334635    11
CTC2_L_00197018-02
1 28577U 22278BC  26070.40844907  .00000000  00000+0  00000-0 0  9990
2 28577  75.0000 204.0000 0000000   0.0000 294.0000 14.70334635    11
CTC2_L_00197018-03
1 28578U 25384GK  26070.40844907  .00000000  00000+0  00000-0 0  9992
2 28578  75.0000 204.0000 0000000   0.0000  24.0000 14.70334635    13
CTC2_L_00197018-04
1 28579U 26903MV  26070.40844907  .00000000  00000+0  00000-0 0  9991
2 28579  75.0000 204.0000 0000000   0.0000 114.0000 14.70334635    14
CTC2_L_00197019-01
1 28580U 22044FD  26070.40844907  .00000000  00000+0  00000-0 0  9995
2 28580  75.0000 216.0000 0000000   0.0000 216.0000 14.70334635    12
CTC2_L_00197019-02
1 28581U 24482CJ  26070.40844907  .00000000  00000+0  00000-0 0  9994
2 28581  75.0000 216.0000 0000000   0.0000 306.0000 14.70334635    13
CTC2_L_00197019-03
1 28582U 24888SL  26070.40844907  .00000000  00000+0  00000-0 0  9995
2 28582  75.0000 216.0000 0000000   0.0000  36.0000 14.70334635    14
CTC2_L_00197019-04
1 28583U 24495ER  26070.40844907  .00000000  00000+0  00000-0 0  9990
2 28583  75.0000 216.0000 0000000   0.0000 126.0000 14.70334635    15
CTC2_L_00197020-01
1 28584U 23127BL  26070.40844907  .00000000  00000+0  00000-0 0  9992
2 28584  75.0000 228.0000 0000000   0.0000 228.0000 14.70334635    12
CTC2_L_00197020-02
1 28585U 26352FX  26070.40844907  .00000000  00000+0  00000-0 0  9996
2 28585  75.0000 228.0000 0000000   0.0000 318.0000 14.70334635    13
CTC2_L_00197020-03
1 28586U 24583NO  26070.40844907  .00000000  00000+0  00000-0 0  9991
2 28586  75.0000 228.0000 0000000   0.0000  48.0000 14.70334635    14
CTC2_L_00197020-04
1 28587U 24138XQ  26070.40844907  .00000000  00000+0  00000-0 0  9998
2 28587  75.0000 228.0000 0000000   0.0000 138.0000 14.70334635    15
CTC2_L_00197021-01
1 28588U 23571CB  26070.40844907  .00000000  00000+0  00000-0 0  9999
2 28588  75.0000 240.0000 0000000   0.0000 240.0000 14.70334635    14
CTC2_L_00197021-02
1 28589U 24947NI  26070.40844907  .00000000  00000+0  00000-0 0  9998
2 28589  75.0000 240.0000 0000000   0.0000 330.0000 14.70334635    15
CTC2_L_00197021-03
1 28590U 25300RZ  26070.40844907  .00000000  00000+0  00000-0 0  9994
2 28590  75.0000 240.0000 0000000   0.0000  60.0000 14.70334635    17
CTC2_L_00197021-04
1 28591U 25443QC  26070.40844907  .00000000  00000+0  00000-0 0  9993
2 28591  75.0000 240.0000 0000000   0.0000 150.0000 14.70334635    18
CTC2_L_00197022-01
1 28592U 25025JL  26070.40844907  .00000000  00000+0  00000-0 0  9990
2 28592  75.0000 252.0000 0000000   0.0000 252.0000 14.70334635    15
CTC2_L_00197022-02
1 28593U 24166JE  26070.40844907  .00000000  00000+0  00000-0 0  9996
2 28593  75.0000 252.0000 0000000   0.0000 342.0000 14.70334635    16
CTC2_L_00197022-03
1 28594U 22478VS  26070.40844907  .00000000  00000+0  00000-0 0  9991
2 28594  75.0000 252.0000 0000000   0.0000  72.0000 14.70334635    17
CTC2_L_00197022-04
1 28595U 26392SU  26070.40844907  .00000000  00000+0  00000-0 0  9991
2 28595  75.0000 252.0000 0000000   0.0000 162.0000 14.70334635    18
CTC2_L_00197023-01
1 28596U 25123TD  26070.40844907  .00000000  00000+0  00000-0 0  9993
2 28596  75.0000 264.0000 0000000   0.0000 264.0000 14.70334635    15
CTC2_L_00197023-02
1 28597U 23892UN  26070.40844907  .00000000  00000+0  00000-0 0  9995
2 28597  75.0000 264.0000 0000000   0.0000 354.0000 14.70334635    16
CTC2_L_00197023-03
1 28598U 25042TA  26070.40844907  .00000000  00000+0  00000-0 0  9995
2 28598  75.0000 264.0000 0000000   0.0000  84.0000 14.70334635    17
CTC2_L_00197023-04
1 28599U 26842LN  26070.40844907  .00000000  00000+0  00000-0 0  9995
2 28599  75.0000 264.0000 0000000   0.0000 174.0000 14.70334635    18
CTC2_L_00197024-01
1 28600U 23482PE  26070.40844907  .00000000  00000+0  00000-0 0  9995
2 28600  75.0000 276.0000 0000000   0.0000 276.0000 14.70334635    17
CTC2_L_00197024-02
1 28601U 22162TN  26070.40844907  .00000000  00000+0  00000-0 0  9990
2 28601  75.0000 276.0000 0000000   0.0000   6.0000 14.70334635    19
CTC2_L_00197024-03
1 28602U 26659OM  26070.40844907  .00000000  00000+0  00000-0 0  9996
2 28602  75.0000 276.0000 0000000   0.0000  96.0000 14.70334635    19
CTC2_L_00197024-04
1 28603U 23145HN  26070.40844907  .00000000  00000+0  00000-0 0  9994
2 28603  75.0000 276.0000 0000000   0.0000 186.0000 14.70334635    10
CTC2_L_00197025-01
1 28604U 25832VY  26070.40844907  .00000000  00000+0  00000-0 0  9990
2 28604  75.0000 288.0000 0000000   0.0000 288.0000 14.70334635    17
CTC2_L_00197025-02
1 28605U 22399HY  26070.40844907  .00000000  00000+0  00000-0 0  9996
2 28605  75.0000 288.0000 0000000   0.0000  18.0000 14.70334635    19
CTC2_L_00197025-03
1 28606U 23621PH  26070.40844907  .00000000  00000+0  00000-0 0  9996
2 28606  75.0000 288.0000 0000000   0.0000 108.0000 14.70334635    10
CTC2_L_00197025-04
1 28607U 24609AD  26070.40844907  .00000000  00000+0  00000-0 0  9994
2 28607  75.0000 288.0000 0000000   0.0000 198.0000 14.70334635    10
CTC2_L_00197026-01
1 28608U 24642HN  26070.40844907  .00000000  00000+0  00000-0 0  9992
2 28608  75.0000 300.0000 0000000   0.0000 300.0000 14.70334635    11
CTC2_L_00197026-02
1 28609U 23861TY  26070.40844907  .00000000  00000+0  00000-0 0  9995
2 28609  75.0000 300.0000 0000000   0.0000  30.0000 14.70334635    12
CTC2_L_00197026-03
1 28610U 23545IK  26070.40844907  .00000000  00000+0  00000-0 0  9996
2 28610  75.0000 300.0000 0000000   0.0000 120.0000 14.70334635    14
CTC2_L_00197026-04
1 28611U 26660QI  26070.40844907  .00000000  00000+0  00000-0 0  9998
2 28611  75.0000 300.0000 0000000   0.0000 210.0000 14.70334635    15
CTC2_L_00197027-01
1 28612U 25750KS  26070.40844907  .00000000  00000+0  00000-0 0  9998
2 28612  75.0000 312.0000 0000000   0.0000 312.0000 14.70334635    12
CTC2_L_00197027-02
1 28613U 23487HE  26070.40844907  .00000000  00000+0  00000-0 0  9994
2 28613  75.0000 312.0000 0000000   0.0000  42.0000 14.70334635    13
CTC2_L_00197027-03
1 28614U 22340PC  26070.40844907  .00000000  00000+0  00000-0 0  9992
2 28614  75.0000 312.0000 0000000   0.0000 132.0000 14.70334635    14
CTC2_L_00197027-04
1 28615U 23239EF  26070.40844907  .00000000  00000+0  00000-0 0  9991
2 28615  75.0000 312.0000 0000000   0.0000 222.0000 14.70334635    15
CTC2_L_00197028-01
1 28616U 23851JO  26070.40844907  .00000000  00000+0  00000-0 0  9992
2 28616  75.0000 324.0000 0000000   0.0000 324.0000 14.70334635    12
CTC2_L_00197028-02
1 28617U 22507MX  26070.40844907  .00000000  00000+0  00000-0 0  9990
2 28617  75.0000 324.0000 0000000   0.0000  54.0000 14.70334635    13
CTC2_L_00197028-03
1 28618U 24358H   26070.40844907  .00000000  00000+0  00000-0 0  9997
2 28618  75.0000 324.0000 0000000   0.0000 144.0000 14.70334635    14
CTC2_L_00197028-04
1 28619U 26902EG  26070.40844907  .00000000  00000+0  00000-0 0  9995
2 28619  75.0000 324.0000 0000000   0.0000 234.0000 14.70334635    15
CTC2_L_00197029-01
1 28620U 23443EG  26070.40844907  .00000000  00000+0  00000-0 0  9994
2 28620  75.0000 336.0000 0000000   0.0000 336.0000 14.70334635    13
CTC2_L_00197029-02
1 28621U 24524MH  26070.40844907  .00000000  00000+0  00000-0 0  9996
2 28621  75.0000 336.0000 0000000   0.0000  66.0000 14.70334635    14
CTC2_L_00197029-03
1 28622U 22987NO  26070.40844907  .00000000  00000+0  00000-0 0  9998
2 28622  75.0000 336.0000 0000000   0.0000 156.0000 14.70334635    15
CTC2_L_00197029-04
1 28623U 26246DP  26070.40844907  .00000000  00000+0  00000-0 0  9991
2 28623  75.0000 336.0000 0000000   0.0000 246.0000 14.70334635    16
CTC2_L_00197030-01
1 28624U 22941LC  26070.40844907  .00000000  00000+0  00000-0 0  9990
2 28624  75.0000 348.0000 0000000   0.0000 348.0000 14.70334635    13
CTC2_L_00197030-02
1 28625U 22416UG  26070.40844907  .00000000  00000+0  00000-0 0  9998
2 28625  75.0000 348.0000 0000000   0.0000  78.0000 14.70334635    14
CTC2_L_00197030-03
1 28626U 26188BL  26070.40844907  .00000000  00000+0  00000-0 0  9999
2 28626  75.0000 348.0000 0000000   0.0000 168.0000 14.70334635    15
CTC2_L_00197030-04
1 28627U 26282RS  26070.40844907  .00000000  00000+0  00000-0 0  9995
2 28627  75.0000 348.0000 0000000   0.0000 258.0000 14.70334635    16
